satname,norad_id,inclination_deg,eccentricity,mean_motion_rev_per_day,perigee_km,apogee_km,l1,l2
STARLINK-1168,45072,53.0528,0.0001298,15.06389861,546.3437184109653,548.1415469636104,1 45072U 20006AE  25296.65436416 -.00000717  00000+0 -29245-4 0  9997,2 45072  53.0528 161.7925 0001298 102.7176 257.3959 15.06389861316083
STARLINK-1172,45074,53.0537,0.0001398,15.06394043,546.2616490646915,548.197981626261,1 45074U 20006AG  25296.06829583  .00001840  00000+0  14240-3 0  9999,2 45074  53.0537 164.4286 0001398 101.0412 259.0734 15.06394043315998
STARLINK-1153,45080,53.0516,0.0001336,15.06402071,546.279984909489,548.1304363481686,1 45080U 20006AN  25296.64330214  .00002831  00000+0  20886-3 0  9992,2 45080  53.0516 161.8436 0001336  95.6355 264.4786 15.06402071316085
STARLINK-1151,45081,53.0537,0.0001506,15.06400306,546.1676627409224,548.2535774440939,1 45081U 20006AP  25295.36797630  .00004321  00000+0  30879-3 0  9999,2 45081  53.0537 167.6447 0001506  82.6750 277.4410 15.06400306315894
STARLINK-1190,45083,53.0412,0.0004182,15.85856447,311.1156597626077,316.71289144952425,1 45083U 20006AR  25296.66671295  .00242521  00000+0  94669-3 0  9996,2 45083  53.0412 117.0851 0004182 182.1805 229.6105 15.85856447  6004
STARLINK-1173,45084,53.0351,0.0005799,16.10822085,240.74853637148135,248.42957405031393,1 45084U 20006AS  25296.68881023  .00932530  51733-3  91746-3 0  9993,2 45084  53.0351  77.2585 0005799 335.3683  24.7073 16.10822085317271
STARLINK-1185,45087,53.0523,0.0001385,15.06387315,546.2912697492475,548.2096020689942,1 45087U 20006AV  25296.00748319  .00000135  00000+0  27990-4 0  9997,2 45087  53.0523 144.6944 0001385 102.3874 257.7270 15.06387315316276
STARLINK-1183,45088,53.0517,0.0001246,15.06399865,546.3490732119917,548.0748701757375,1 45088U 20006AW  25295.96325475  .00000761  00000+0  69975-4 0  9990,2 45088  53.0517 144.8967 0001246 104.1289 255.9838 15.06399865316265
STARLINK-1176,45090,53.0412,0.0006901,16.05065782,255.83254975885666,264.99507759189146,1 45090U 20006AY  25296.85534316  .00683255  23968-3  96693-3 0  9991,2 45090  53.0412  74.9643 0006901 342.6597  17.4198 16.05065782317326
STARLINK-1142,45093,53.0342,0.0002308,15.58746019,389.7228453418047,392.84761064224585,1 45093U 20006BB  25296.66671295  .00152533  00000+0  19131-2 0  9990,2 45093  53.0342  78.0168 0002308 287.1072 204.0642 15.58746019  5830
STARLINK-1152,45096,53.049,0.0008875,15.2309619,490.40691531349876,502.60941047763754,1 45096U 20006BE  25296.52330735  .00011092  00000+0  47726-3 0  9995,2 45096  53.0490 125.5564 0008875 136.8437 223.3256 15.23096190316587
STARLINK-1184,45098,53.0538,0.0001289,15.06382841,546.3714640931148,548.1568325091475,1 45098U 20006BG  25296.57512782 -.00000863  00000+0 -39045-4 0  9998,2 45098  53.0538 142.1497 0001289 105.2052 254.9080 15.06382841316359
STARLINK-1193,45100,53.0536,0.0001384,15.06393179,546.2739922660212,548.1909345334907,1 45100U 20006BJ  25296.57143387  .00002291  00000+0  17268-3 0  9990,2 45100  53.0536 142.1654 0001384  82.9780 277.1366 15.06393179316351
STARLINK-1143,45179,53.0542,0.0007948,15.39414316,442.41481883324286,453.2653920400453,1 45179U 20012B   25296.34019608  .00113358  00000+0  28183-2 0  9990,2 45179  53.0542 268.8282 0007948  19.4407 340.6898 15.39414316314627
STARLINK-1202,45183,53.0542,0.0001429,15.06419253,546.1629270178591,548.142174771504,1 45183U 20012F   25296.30234690  .00006985  00000+0  48708-3 0  9994,2 45183  53.0542 303.3767 0001429  91.4032 268.7120 15.06419253314130
STARLINK-1216,45185,53.0534,0.0001302,15.06423214,546.2387401664137,548.0420824043122,1 45185U 20012H   25296.29498477  .00011725  00000+0  80423-3 0  9997,2 45185  53.0534 303.4073 0001302  72.0329 288.0802 15.06423214314075
STARLINK-1225,45187,53.0536,9.72e-05,15.06421702,546.4719078176549,547.8181826472473,1 45187U 20012K   25296.31340757  .00008360  00000+0  57910-3 0  9995,2 45187  53.0536 303.3253 0000972  75.3353 284.7744 15.06421702314127
STARLINK-1230,45189,53.0543,0.0001563,15.06421691,546.0626573561203,548.227500533998,1 45189U 20012M   25296.25074501  .00008199  00000+0  56833-3 0  9994,2 45189  53.0543 303.6085 0001563  76.5244 283.5919 15.06421691311341
STARLINK-1234,45190,53.0526,0.0001054,15.34114782,462.82998562086595,464.27221347225077,1 45190U 20012N   25296.66671295  .00128165  00000+0  37738-2 0  9992,2 45190  53.0526 260.3303 0001054  54.3204 306.6430 15.34114782  5741
STARLINK-1269,45197,53.0534,0.0001333,15.06410696,546.2556318397528,548.1019210257491,1 45197U 20012V   25296.32814917  .00004685  00000+0  33309-3 0  9993,2 45197  53.0534 303.2623 0001333  98.7263 261.3877 15.06410696314103
STARLINK-1154,45198,53.055,0.0001544,15.06398593,546.1465957108312,548.2851446771465,1 45198U 20012W   25296.25259439  .00001170  00000+0  97408-4 0  9995,2 45198  53.0550 283.5997 0001544  94.4253 265.6912 15.06398593314346
STARLINK-1199,45201,53.054,0.0001433,15.06423709,546.1465021853928,548.1312862566756,1 45201U 20012Z   25296.26363681  .00004522  00000+0  32209-3 0  9997,2 45201  53.0540 283.5482 0001433  90.3046 269.8107 15.06423709314408
STARLINK-1209,45206,53.056,0.0001823,15.29966762,474.6620714616829,477.1610575683053,1 45206U 20012AE  25296.66671295  .00029044  00000+0  99595-3 0  9996,2 45206  53.0560 260.6445 0001823  85.4858  95.7692 15.29966762  5755
STARLINK-1210,45207,53.0258,0.0012608,15.54406898,395.3264882935673,412.4280154310627,1 45207U 20012AF  25296.66671295  .00193023  00000+0  28194-2 0  9992,2 45207  53.0258 224.3296 0012608  36.7152 333.1377 15.54406898  5879
STARLINK-1231,45212,53.051,0.0005547,15.11612623,527.4488916708069,535.1142006058917,1 45212U 20012AL  25296.37555795  .00045509  00000+0  26483-2 0  9996,2 45212  53.0510 281.7004 0005547  12.1002 348.0121 15.11612623314396
STARLINK-1271,45217,53.0538,0.00015,15.06380564,546.2323159003954,548.3099383385315,1 45217U 20012AR  25296.24891928 -.00004403  00000+0 -27703-3 0  9995,2 45217  53.0538 283.6134 0001500  83.2741 276.8419 15.06380564314400
STARLINK-1191,45222,53.0543,0.0001598,15.06403379,546.0945327646505,548.3078708539497,1 45222U 20012AW  25296.19177384  .00003568  00000+0  25828-3 0  9993,2 45222  53.0543 263.8701 0001598  95.5089 264.6082 15.06403379314670
STARLINK-1212,45223,53.0541,0.0001386,15.06392895,546.2734774972914,548.1931901538283,1 45223U 20012AX  25296.60836959  .00000434  00000+0  48004-4 0  9991,2 45223  53.0541 262.6556 0001386  95.5836 264.5311 15.06392895314730
STARLINK-1215,45225,53.054,0.0001568,15.06388402,546.1612041383587,548.3330045934881,1 45225U 20012AZ  25296.63040832  .00001912  00000+0  14729-3 0  9991,2 45225  53.0540 261.9010 0001568  94.0972 266.0196 15.06388402314697
STARLINK-1221,45227,53.0683,0.0001685,15.36440413,455.4937544150025,457.79707608894296,1 45227U 20012BB  25296.44955000  .00018673  00000+0  52709-3 0  9996,2 45227  53.0683 197.2411 0001685 326.5183  33.5712 15.36440413315573
STARLINK-1222,45228,53.0548,0.0001388,15.0639792,546.2566935813584,548.1791721107156,1 45228U 20012BC  25296.59723109 -.00000004  00000+0  18620-4 0  9991,2 45228  53.0548 262.0505 0001388  93.2953 266.8194 15.06397920314623
STARLINK-1226,45229,53.0544,0.0001748,15.06399466,546.0026433578387,548.4237457858608,1 45229U 20012BD  25296.62672553  .00000611  00000+0  59948-4 0  9993,2 45229  53.0544 261.9157 0001748  82.1103 278.0085 15.06399466314637
STARLINK-1227,45230,53.0552,0.0001734,15.06396478,546.0214950703457,548.4232096937512,1 45230U 20012BE  25296.62302068 -.00000765  00000+0 -32447-4 0  9993,2 45230  53.0552 261.9319 0001734  89.7084 270.4104 15.06396478314755
STARLINK-1246,45235,53.054,0.0001264,15.06426685,546.2544197437592,548.0051271840912,1 45235U 20012BK  25296.43871850  .00008233  00000+0  57053-3 0  9992,2 45235  53.0540 302.7615 0001264  93.6622 266.4512 15.06426685314178
STARLINK-1270,45237,53.0551,0.0001552,15.06405905,546.1186487354771,548.2682713102677,1 45237U 20012BM  25296.30971569  .00001212  00000+0  10021-3 0  9992,2 45237  53.0551 263.3398 0001552 102.4503 257.6659 15.06405905314692
STARLINK-1279,45360,53.0531,4.45e-05,15.30171374,474.99556485728226,475.6055207985946,1 45360U 20019A   25296.66671295  .01853247  00000+0  56971-1 0  9994,2 45360  53.0531  30.6444 0000445  43.1901 162.6723 15.30171374  5801
STARLINK-1301,45361,53.0537,0.0001167,15.31788103,469.67814405737226,471.2766106530471,1 45361U 20019B   25296.66671295  .01585100  00000+0  46333-1 0  9996,2 45361  53.0537  40.4861 0001167  57.1488 294.8168 15.31788103  5803
STARLINK-1306,45362,53.0483,0.0005782,15.66655704,364.5802784415491,372.3820676968862,1 45362U 20019C   25296.66671295  .00126157  00000+0  11664-2 0  9999,2 45362  53.0483  32.5088 0005782 259.4183   2.7960 15.66655704  6011
STARLINK-1262,45366,53.054,0.0001413,15.06403622,546.2219068695013,548.179007234864,1 45366U 20019G   25296.61933150  .00001497  00000+0  11934-3 0  9999,2 45366  53.0540  61.9469 0001413  87.9470 272.1680 15.06403622309076
STARLINK-1273,45367,53.0553,0.0001436,15.06416639,546.166089539186,548.1550349990694,1 45367U 20019H   25296.64143757  .00000210  00000+0  32988-4 0  9994,2 45367  53.0553  61.8514 0001436  79.0620 281.0531 15.06416639309071
STARLINK-1276,45368,53.0547,0.0001113,15.06405447,546.424074281661,547.9656531545243,1 45368U 20019J   25296.61195185 -.00000998  00000+0 -48112-4 0  9995,2 45368  53.0547  61.9842 0001113  97.8756 262.2359 15.06405447309074
STARLINK-1277,45369,53.0553,0.0001364,15.06397873,546.2734584621148,548.1626953270916,1 45369U 20019K   25296.67102505  .00001105  00000+0  93045-4 0  9990,2 45369  53.0553  62.3470 0001364  95.2282 264.8863 15.06397873309079
STARLINK-1281,45370,53.0565,0.0001155,15.06401511,546.4070497212106,548.0068041683344,1 45370U 20019L   25296.66724479  .00001428  00000+0  11472-3 0  9992,2 45370  53.0565  61.7395 0001155 108.0215 252.0900 15.06401511309087
